CCSDS_OMM_VERS = 2.0
CREATION_DATE  = 
ORIGINATOR     = 

OBJECT_NAME    = STARLINK-36438
OBJECT_ID      = 2026-020J
CENTER_NAME    = EARTH
REF_FRAME      = TEME
TIME_SYSTEM    = UTC
MEAN_ELEMENT_THEORY = SGP/SGP4

EPOCH          = 2026-02-24T19:27:36.436896
MEAN_MOTION    = 15.76619533
ECCENTRICITY   = .0005559
INCLINATION    = 43.0011
RA_OF_ASC_NODE = 220.4328
ARG_OF_PERICENTER = 272.4508
MEAN_ANOMALY   = 87.5725

EPHEMERIS_TYPE = 0
CLASSIFICATION_TYPE = U
NORAD_CAT_ID   = 67625
ELEMENT_SET_NO = 999
REV_AT_EPOCH   = 405
BSTAR          = .15948E-2
MEAN_MOTION_DOT = .270853E-2
MEAN_MOTION_DDOT = 0

CCSDS_OMM_VERS = 2.0
CREATION_DATE  = 
ORIGINATOR     = 

OBJECT_NAME    = STARLINK-36436
OBJECT_ID      = 2026-020K
CENTER_NAME    = EARTH
REF_FRAME      = TEME
TIME_SYSTEM    = UTC
MEAN_ELEMENT_THEORY = SGP/SGP4

EPOCH          = 2026-02-24T12:41:41.212608
MEAN_MOTION    = 15.76398934
ECCENTRICITY   = .00035212
INCLINATION    = 42.9987
RA_OF_ASC_NODE = 221.7408
ARG_OF_PERICENTER = 294.5319
MEAN_ANOMALY   = 65.5183

EPHEMERIS_TYPE = 0
CLASSIFICATION_TYPE = U
NORAD_CAT_ID   = 67626
ELEMENT_SET_NO = 999
REV_AT_EPOCH   = 401
BSTAR          = .19453262E-2
MEAN_MOTION_DOT = .329424E-2
MEAN_MOTION_DDOT = 0

CCSDS_OMM_VERS = 2.0
CREATION_DATE  = 
ORIGINATOR     = 

OBJECT_NAME    = STARLINK-36502
OBJECT_ID      = 2026-020L
CENTER_NAME    = EARTH
REF_FRAME      = TEME
TIME_SYSTEM    = UTC
MEAN_ELEMENT_THEORY = SGP/SGP4

EPOCH          = 2026-02-24T20:00:00.999360
MEAN_MOTION    = 15.76332774
ECCENTRICITY   = .0001629
INCLINATION    = 42.9994
RA_OF_ASC_NODE = 219.7377
ARG_OF_PERICENTER = 268.1373
MEAN_ANOMALY   = 83.6939

EPHEMERIS_TYPE = 0
CLASSIFICATION_TYPE = U
NORAD_CAT_ID   = 67627
ELEMENT_SET_NO = 999
REV_AT_EPOCH   = 532
BSTAR          = .27818E-3
MEAN_MOTION_DOT = .44985E-3
MEAN_MOTION_DDOT = 0

CCSDS_OMM_VERS = 2.0
CREATION_DATE  = 
ORIGINATOR     = 

OBJECT_NAME    = STARLINK-36532
OBJECT_ID      = 2026-020M
CENTER_NAME    = EARTH
REF_FRAME      = TEME
TIME_SYSTEM    = UTC
MEAN_ELEMENT_THEORY = SGP/SGP4

EPOCH          = 2026-02-24T20:00:00.999360
MEAN_MOTION    = 15.76334128
ECCENTRICITY   = .0001561
INCLINATION    = 42.9992
RA_OF_ASC_NODE = 219.7059
ARG_OF_PERICENTER = 267.9343
MEAN_ANOMALY   = 96.3410

EPHEMERIS_TYPE = 0
CLASSIFICATION_TYPE = U
NORAD_CAT_ID   = 67628
ELEMENT_SET_NO = 999
REV_AT_EPOCH   = 532
BSTAR          = .28852E-3
MEAN_MOTION_DOT = .46688E-3
MEAN_MOTION_DDOT = 0

CCSDS_OMM_VERS = 2.0
CREATION_DATE  = 
ORIGINATOR     = 

OBJECT_NAME    = STARLINK-36367
OBJECT_ID      = 2026-020N
CENTER_NAME    = EARTH
REF_FRAME      = TEME
TIME_SYSTEM    = UTC
MEAN_ELEMENT_THEORY = SGP/SGP4

EPOCH          = 2026-02-24T11:26:12.774336
MEAN_MOTION    = 15.76475056
ECCENTRICITY   = .00019302
INCLINATION    = 42.9969
RA_OF_ASC_NODE = 222.2141
ARG_OF_PERICENTER = 273.6795
MEAN_ANOMALY   = 86.3854

EPHEMERIS_TYPE = 0
CLASSIFICATION_TYPE = U
NORAD_CAT_ID   = 67629
ELEMENT_SET_NO = 999
REV_AT_EPOCH   = 400
BSTAR          = .23960774E-2
MEAN_MOTION_DOT = .411198E-2
MEAN_MOTION_DDOT = 0

CCSDS_OMM_VERS = 2.0
CREATION_DATE  = 
ORIGINATOR     = 

OBJECT_NAME    = STARLINK-36416
OBJECT_ID      = 2026-020P
CENTER_NAME    = EARTH
REF_FRAME      = TEME
TIME_SYSTEM    = UTC
MEAN_ELEMENT_THEORY = SGP/SGP4

EPOCH          = 2026-02-24T19:24:28.311264
MEAN_MOTION    = 15.76448126
ECCENTRICITY   = .0001848
INCLINATION    = 42.9975
RA_OF_ASC_NODE = 220.4126
ARG_OF_PERICENTER = 296.5612
MEAN_ANOMALY   = 63.5068

EPHEMERIS_TYPE = 0
CLASSIFICATION_TYPE = U
NORAD_CAT_ID   = 67630
ELEMENT_SET_NO = 999
REV_AT_EPOCH   = 405
BSTAR          = .15351E-2
MEAN_MOTION_DOT = .258184E-2
MEAN_MOTION_DDOT = 0

CCSDS_OMM_VERS = 2.0
CREATION_DATE  = 
ORIGINATOR     = 

OBJECT_NAME    = STARLINK-36527
OBJECT_ID      = 2026-020Q
CENTER_NAME    = EARTH
REF_FRAME      = TEME
TIME_SYSTEM    = UTC
MEAN_ELEMENT_THEORY = SGP/SGP4

EPOCH          = 2026-02-22T20:44:02.529888
MEAN_MOTION    = 15.82033993
ECCENTRICITY   = .0003436
INCLINATION    = 42.9984
RA_OF_ASC_NODE = 231.6086
ARG_OF_PERICENTER = 320.3353
MEAN_ANOMALY   = 39.7267

EPHEMERIS_TYPE = 0
CLASSIFICATION_TYPE = U
NORAD_CAT_ID   = 67631
ELEMENT_SET_NO = 999
REV_AT_EPOCH   = 375
BSTAR          = .18649E-2
MEAN_MOTION_DOT = .41178E-2
MEAN_MOTION_DDOT = 0

CCSDS_OMM_VERS = 2.0
CREATION_DATE  = 
ORIGINATOR     = 

OBJECT_NAME    = STARLINK-36633
OBJECT_ID      = 2026-020R
CENTER_NAME    = EARTH
REF_FRAME      = TEME
TIME_SYSTEM    = UTC
MEAN_ELEMENT_THEORY = SGP/SGP4

EPOCH          = 2026-02-24T11:04:08.630400
MEAN_MOTION    = 15.76584352
ECCENTRICITY   = .00019426
INCLINATION    = 42.9982
RA_OF_ASC_NODE = 222.0899
ARG_OF_PERICENTER = 240.7110
MEAN_ANOMALY   = 119.3566

EPHEMERIS_TYPE = 0
CLASSIFICATION_TYPE = U
NORAD_CAT_ID   = 67632
ELEMENT_SET_NO = 999
REV_AT_EPOCH   = 400
BSTAR          = .23582303E-2
MEAN_MOTION_DOT = .406421E-2
MEAN_MOTION_DDOT = 0

CCSDS_OMM_VERS = 2.0
CREATION_DATE  = 
ORIGINATOR     = 

OBJECT_NAME    = STARLINK-36637
OBJECT_ID      = 2026-020S
CENTER_NAME    = EARTH
REF_FRAME      = TEME
TIME_SYSTEM    = UTC
MEAN_ELEMENT_THEORY = SGP/SGP4

EPOCH          = 2026-02-24T19:21:19.307808
MEAN_MOTION    = 15.76473988
ECCENTRICITY   = .000146
INCLINATION    = 42.9974
RA_OF_ASC_NODE = 220.3957
ARG_OF_PERICENTER = 300.1078
MEAN_ANOMALY   = 59.9647

EPHEMERIS_TYPE = 0
CLASSIFICATION_TYPE = U
NORAD_CAT_ID   = 67633
ELEMENT_SET_NO = 999
REV_AT_EPOCH   = 405
BSTAR          = .24015E-2
MEAN_MOTION_DOT = .41216E-2
MEAN_MOTION_DDOT = 0

CCSDS_OMM_VERS = 2.0
CREATION_DATE  = 
ORIGINATOR     = 

OBJECT_NAME    = STARLINK-36617
OBJECT_ID      = 2026-020T
CENTER_NAME    = EARTH
REF_FRAME      = TEME
TIME_SYSTEM    = UTC
MEAN_ELEMENT_THEORY = SGP/SGP4

EPOCH          = 2026-02-24T20:00:00.999360
MEAN_MOTION    = 15.76321724
ECCENTRICITY   = .0001797
INCLINATION    = 42.9992
RA_OF_ASC_NODE = 219.6441
ARG_OF_PERICENTER = 260.8377
MEAN_ANOMALY   = 128.3219

EPHEMERIS_TYPE = 0
CLASSIFICATION_TYPE = U
NORAD_CAT_ID   = 67634
ELEMENT_SET_NO = 999
REV_AT_EPOCH   = 532
BSTAR          = .45821E-3
MEAN_MOTION_DOT = .7464E-3
MEAN_MOTION_DDOT = 0

CCSDS_OMM_VERS = 2.0
CREATION_DATE  = 
ORIGINATOR     = 

OBJECT_NAME    = STARLINK-36627
OBJECT_ID      = 2026-020U
CENTER_NAME    = EARTH
REF_FRAME      = TEME
TIME_SYSTEM    = UTC
MEAN_ELEMENT_THEORY = SGP/SGP4

EPOCH          = 2026-02-24T19:11:51.214848
MEAN_MOTION    = 15.76386543
ECCENTRICITY   = .0001224
INCLINATION    = 42.9985
RA_OF_ASC_NODE = 220.3417
ARG_OF_PERICENTER = 266.9558
MEAN_ANOMALY   = 93.1172

EPHEMERIS_TYPE = 0
CLASSIFICATION_TYPE = U
NORAD_CAT_ID   = 67635
ELEMENT_SET_NO = 999
REV_AT_EPOCH   = 405
BSTAR          = .11251E-3
MEAN_MOTION_DOT = .17889E-3
MEAN_MOTION_DDOT = 0

CCSDS_OMM_VERS = 2.0
CREATION_DATE  = 
ORIGINATOR     = 

OBJECT_NAME    = STARLINK-36624
OBJECT_ID      = 2026-020V
CENTER_NAME    = EARTH
REF_FRAME      = TEME
TIME_SYSTEM    = UTC
MEAN_ELEMENT_THEORY = SGP/SGP4

EPOCH          = 2026-02-24T14:09:46.141632
MEAN_MOTION    = 15.76402431
ECCENTRICITY   = .0001598
INCLINATION    = 42.9983
RA_OF_ASC_NODE = 221.3384
ARG_OF_PERICENTER = 252.4705
MEAN_ANOMALY   = 107.5990

EPHEMERIS_TYPE = 0
CLASSIFICATION_TYPE = U
NORAD_CAT_ID   = 67636
ELEMENT_SET_NO = 999
REV_AT_EPOCH   = 402
BSTAR          = .16706E-2
MEAN_MOTION_DOT = .281219E-2
MEAN_MOTION_DDOT = 0

