STARLINK-36438          
1 67625U 26020J   26055.81083839  .00270853  00000+0  15948-2 0  9997
2 67625  43.0011 220.4328 0005559 272.4508  87.5725 15.76619533  4059
STARLINK-36436          
1 67626U 26020K   26055.52894922  .00329424  00000+0  19453-2 0  9993
2 67626  42.9987 221.7408 0003521 294.5319  65.5183 15.76398934  4014
STARLINK-36502          
1 67627U 26020L   26055.83334490  .00044985  00000+0  27818-3 0  9998
2 67627  42.9994 219.7377 0001629 268.1373  83.6939 15.76332774  5324
STARLINK-36532          
1 67628U 26020M   26055.83334490  .00046688  00000+0  28852-3 0  9990
2 67628  42.9992 219.7059 0001561 267.9343  96.3410 15.76334128  5329
STARLINK-36367          
1 67629U 26020N   26055.47653674  .00411198  00000+0  23961-2 0  9996
2 67629  42.9969 222.2141 0001930 273.6795  86.3854 15.76475056  4001
STARLINK-36416          
1 67630U 26020P   26055.80866101  .00258184  00000+0  15351-2 0  9994
2 67630  42.9975 220.4126 0001848 296.5612  63.5068 15.76448126  4050
STARLINK-36527          
1 67631U 26020Q   26053.86391817  .00411780  00000+0  18649-2 0  9992
2 67631  42.9984 231.6086 0003436 320.3353  39.7267 15.82033993  3754
STARLINK-36633          
1 67632U 26020R   26055.46121100  .00406421  00000+0  23582-2 0  9995
2 67632  42.9982 222.0899 0001942 240.7110 119.3566 15.76584352  4004
STARLINK-36637          
1 67633U 26020S   26055.80647347  .00412160  00000+0  24015-2 0  9999
2 67633  42.9974 220.3957 0001460 300.1078  59.9647 15.76473988  4057
STARLINK-36617          
1 67634U 26020T   26055.83334490  .00074640  00000+0  45821-3 0  9991
2 67634  42.9992 219.6441 0001797 260.8377 128.3219 15.76321724  5321
STARLINK-36627          
1 67635U 26020U   26055.79989832  .00017889  00000+0  11251-3 0  9995
2 67635  42.9985 220.3417 0001224 266.9558  93.1172 15.76386543  4055
STARLINK-36624          
1 67636U 26020V   26055.59011738  .00281219  00000+0  16706-2 0  9994
2 67636  42.9983 221.3384 0001598 252.4705 107.5990 15.76402431  4026
